[{"OBJECT_NAME":"OBJECT C","OBJECT_ID":"2024-094C","EPOCH":"2026-03-09T23:40:22.800864","MEAN_MOTION":15.16350553,"ECCENTRICITY":0.0005615,"INCLINATION":97.3999,"RA_OF_ASC_NODE":142.6319,"ARG_OF_PERICENTER":209.4203,"MEAN_ANOMALY":150.6715,"EPHEMERIS_TYPE":0,"CLASSIFICATION_TYPE":"U","NORAD_CAT_ID":59807,"ELEMENT_SET_NO":999,"REV_AT_EPOCH":10012,"BSTAR":0.00045742528,"MEAN_MOTION_DOT":8.815e-5,"MEAN_MOTION_DDOT":0},{"OBJECT_NAME":"SL-8 DEB","OBJECT_ID":"1974-071C","EPOCH":"2026-03-09T18:55:46.744608","MEAN_MOTION":15.16405778,"ECCENTRICITY":0.00028572,"INCLINATION":74.0336,"RA_OF_ASC_NODE":64.8288,"ARG_OF_PERICENTER":212.1551,"MEAN_ANOMALY":147.9471,"EPHEMERIS_TYPE":0,"CLASSIFICATION_TYPE":"U","NORAD_CAT_ID":8756,"ELEMENT_SET_NO":999,"REV_AT_EPOCH":87568,"BSTAR":0.0013012162,"MEAN_MOTION_DOT":0.00025337,"MEAN_MOTION_DDOT":0}]
